start=new Date('2021-10-19T00:00:00.000Z').valueOf();
sats=[{"TLE_LINE2":"2 48307  53.0554  87.7222 0002164  87.1186 273.0051 15.06395191 26565","TLE_LINE1":"1 48307U 21036AH  21291.69686084 -.00000367  00000-0 -56912-5 0  9992","APOAPSIS":"548.727","RCS_SIZE":"LARGE","INCLINATION":"53.0554","DECAY_DATE":null,"OBJECT_ID":"2021-036AH","REV_AT_EPOCH":"2656","ARG_OF_PERICENTER":"87.1186","MEAN_ANOMALY":"273.0051","ELEMENT_SET_NO":"999","TIME_SYSTEM":"UTC","NORAD_CAT_ID":"48307","CLASSIFICATION_TYPE":"U","MEAN_MOTION":"15.06395191","EPHEMERIS_TYPE":"0","REF_FRAME":"TEME","OBJECT_NAME":"STARLINK-2528","OBJECT_TYPE":"PAYLOAD","GP_ID":"187537265","ECCENTRICITY":"0.00021640","MEAN_MOTION_DOT":"-0.00000367","MEAN_MOTION_DDOT":"0.0000000000000","SITE":"AFETR","FILE":"3170620","MEAN_ELEMENT_THEORY":"SGP4","PERIAPSIS":"545.730","RA_OF_ASC_NODE":"87.7222","CENTER_NAME":"EARTH","LAUNCH_DATE":"2021-04-29","COUNTRY_CODE":"US","BSTAR":"-0.00000569120000","EPOCH":"2021-10-18T16:43:28.776576","SEMIMAJOR_AXIS":"6925.363","PERIOD":"95.592"},{"RCS_SIZE":"LARGE","DECAY_DATE":null,"INCLINATION":"53.0558","REV_AT_EPOCH":"2656","OBJECT_ID":"2021-036AJ","TLE_LINE1":"1 48308U 21036AJ  21291.69317642 -.00000192  00000-0  60401-5 0  9997","TLE_LINE2":"2 48308  53.0558  87.7442 0001939  80.9647 279.1561 15.06395692 26565","APOAPSIS":"548.570","NORAD_CAT_ID":"48308","CLASSIFICATION_TYPE":"U","ARG_OF_PERICENTER":"80.9647","MEAN_ANOMALY":"279.1561","TIME_SYSTEM":"UTC","ELEMENT_SET_NO":"999","GP_ID":"187537516","ECCENTRICITY":"0.00019390","MEAN_MOTION_DOT":"-0.00000192","MEAN_MOTION_DDOT":"0.0000000000000","SITE":"AFETR","FILE":"3170620","MEAN_MOTION":"15.06395692","REF_FRAME":"TEME","EPHEMERIS_TYPE":"0","OBJECT_NAME":"STARLINK-2532","OBJECT_TYPE":"PAYLOAD","BSTAR":"0.00000604010000","EPOCH":"2021-10-18T16:38:10.442688","COUNTRY_CODE":"US","SEMIMAJOR_AXIS":"6925.362","PERIOD":"95.592","MEAN_ELEMENT_THEORY":"SGP4","RA_OF_ASC_NODE":"87.7442","PERIAPSIS":"545.884","LAUNCH_DATE":"2021-04-29","CENTER_NAME":"EARTH"},{"TLE_LINE2":"2 48309  53.0572  88.0718 0001758  75.6050 284.5134 15.06403548 26555","TLE_LINE1":"1 48309U 21036AK  21291.62315800  .00002988  00000-0  21936-3 0  9997","APOAPSIS":"548.420","RCS_SIZE":"LARGE","INCLINATION":"53.0572","DECAY_DATE":null,"REV_AT_EPOCH":"2655","OBJECT_ID":"2021-036AK","ARG_OF_PERICENTER":"75.6050","MEAN_ANOMALY":"284.5134","ELEMENT_SET_NO":"999","TIME_SYSTEM":"UTC","NORAD_CAT_ID":"48309","CLASSIFICATION_TYPE":"U","MEAN_MOTION":"15.06403548","EPHEMERIS_TYPE":"0","REF_FRAME":"TEME","OBJECT_NAME":"STARLINK-2517","OBJECT_TYPE":"PAYLOAD","ECCENTRICITY":"0.00017580","GP_ID":"187536264","MEAN_MOTION_DDOT":"0.0000000000000","MEAN_MOTION_DOT":"0.00002988","SITE":"AFETR","FILE":"3170620","MEAN_ELEMENT_THEORY":"SGP4","PERIAPSIS":"545.985","RA_OF_ASC_NODE":"88.0718","CENTER_NAME":"EARTH","LAUNCH_DATE":"2021-04-29","COUNTRY_CODE":"US","EPOCH":"2021-10-18T14:57:20.851200","BSTAR":"0.00021936000000","SEMIMAJOR_AXIS":"6925.338","PERIOD":"95.592"},{"NORAD_CAT_ID":"48310","CLASSIFICATION_TYPE":"U","ARG_OF_PERICENTER":"81.6294","MEAN_ANOMALY":"278.4895","TIME_SYSTEM":"UTC","ELEMENT_SET_NO":"999","DECAY_DATE":null,"INCLINATION":"53.0550","RCS_SIZE":"LARGE","OBJECT_ID":"2021-036AL","REV_AT_EPOCH":"2655","TLE_LINE1":"1 48310U 21036AL  21291.61946596  .00001043  00000-0  88941-4 0  9991","TLE_LINE2":"2 48310  53.0550  88.0679 0001759  81.6294 278.4895 15.06398335 26550","APOAPSIS":"548.437","EPOCH":"2021-10-18T14:52:01.858944","BSTAR":"0.00008894100000","COUNTRY_CODE":"US","SEMIMAJOR_AXIS":"6925.354","PERIOD":"95.592","RA_OF_ASC_NODE":"88.0679","PERIAPSIS":"546.000","MEAN_ELEMENT_THEORY":"SGP4","LAUNCH_DATE":"2021-04-29","CENTER_NAME":"EARTH","MEAN_MOTION_DDOT":"0.0000000000000","MEAN_MOTION_DOT":"0.00001043","GP_ID":"187536514","ECCENTRICITY":"0.00017590","FILE":"3170620","SITE":"AFETR","REF_FRAME":"TEME","EPHEMERIS_TYPE":"0","MEAN_MOTION":"15.06398335","OBJECT_TYPE":"PAYLOAD","OBJECT_NAME":"STARLINK-2536"},{"APOAPSIS":"548.564","TLE_LINE2":"2 48311  53.0560  88.0946 0001925  73.7278 286.3922 15.06394329 26556","TLE_LINE1":"1 48311U 21036AM  21291.61577892 -.00000158  00000-0  82841-5 0  9992","REV_AT_EPOCH":"2655","OBJECT_ID":"2021-036AM","RCS_SIZE":"LARGE","INCLINATION":"53.0560","DECAY_DATE":null,"TIME_SYSTEM":"UTC","ELEMENT_SET_NO":"999","MEAN_ANOMALY":"286.3922","ARG_OF_PERICENTER":"73.7278","CLASSIFICATION_TYPE":"U","NORAD_CAT_ID":"48311","OBJECT_NAME":"STARLINK-2534","OBJECT_TYPE":"PAYLOAD","MEAN_MOTION":"15.06394329","EPHEMERIS_TYPE":"0","REF_FRAME":"TEME","SITE":"AFETR","FILE":"3170620","GP_ID":"187537765","ECCENTRICITY":"0.00019250","MEAN_MOTION_DDOT":"0.0000000000000","MEAN_MOTION_DOT":"-0.00000158","CENTER_NAME":"EARTH","LAUNCH_DATE":"2021-04-29","MEAN_ELEMENT_THEORY":"SGP4","PERIAPSIS":"545.898","RA_OF_ASC_NODE":"88.0946","SEMIMAJOR_AXIS":"6925.366","PERIOD":"95.593","COUNTRY_CODE":"US","BSTAR":"0.00000828410000","EPOCH":"2021-10-18T14:46:43.298688"},{"CLASSIFICATION_TYPE":"U","NORAD_CAT_ID":"48312","TIME_SYSTEM":"UTC","ELEMENT_SET_NO":"999","ARG_OF_PERICENTER":"82.2130","MEAN_ANOMALY":"277.9076","OBJECT_ID":"2021-036AN","REV_AT_EPOCH":"2655","DECAY_DATE":null,"INCLINATION":"53.0565","RCS_SIZE":"LARGE","APOAPSIS":"548.562","TLE_LINE1":"1 48312U 21036AN  21291.61208876 -.00000560  00000-0 -18671-4 0  9993","TLE_LINE2":"2 48312  53.0565  88.1172 0001916  82.2130 277.9076 15.06393006 26553","SEMIMAJOR_AXIS":"6925.370","PERIOD":"95.593","EPOCH":"2021-10-18T14:41:24.468864","BSTAR":"-0.00001867100000","COUNTRY_CODE":"US","LAUNCH_DATE":"2021-04-29","CENTER_NAME":"EARTH","PERIAPSIS":"545.908","RA_OF_ASC_NODE":"88.1172","MEAN_ELEMENT_THEORY":"SGP4","FILE":"3170620","SITE":"AFETR","MEAN_MOTION_DDOT":"0.0000000000000","MEAN_MOTION_DOT":"-0.00000560","ECCENTRICITY":"0.00019160","GP_ID":"187538016","OBJECT_TYPE":"PAYLOAD","OBJECT_NAME":"STARLINK-2061","EPHEMERIS_TYPE":"0","REF_FRAME":"TEME","MEAN_MOTION":"15.06393006"},{"MEAN_MOTION":"15.06399378","EPHEMERIS_TYPE":"0","REF_FRAME":"TEME","OBJECT_NAME":"STARLINK-2541","OBJECT_TYPE":"PAYLOAD","GP_ID":"187536764","ECCENTRICITY":"0.00020150","MEAN_MOTION_DDOT":"0.0000000000000","MEAN_MOTION_DOT":"0.00001394","SITE":"AFETR","FILE":"3170620","MEAN_ELEMENT_THEORY":"SGP4","RA_OF_ASC_NODE":"88.1413","PERIAPSIS":"545.820","CENTER_NAME":"EARTH","LAUNCH_DATE":"2021-04-29","COUNTRY_CODE":"US","EPOCH":"2021-10-18T14:36:06.481440","BSTAR":"0.00011249000000","PERIOD":"95.592","SEMIMAJOR_AXIS":"6925.350","TLE_LINE2":"2 48313  53.0555  88.1413 0002015  85.6012 274.5207 15.06399378 26544","TLE_LINE1":"1 48313U 21036AP  21291.60840835  .00001394  00000-0  11249-3 0  9997","APOAPSIS":"548.611","RCS_SIZE":"LARGE","INCLINATION":"53.0555","DECAY_DATE":null,"OBJECT_ID":"2021-036AP","REV_AT_EPOCH":"2654","ARG_OF_PERICENTER":"85.6012","MEAN_ANOMALY":"274.5207","TIME_SYSTEM":"UTC","ELEMENT_SET_NO":"999","NORAD_CAT_ID":"48313","CLASSIFICATION_TYPE":"U"},{"SITE":"AFETR","FILE":"3170620","ECCENTRICITY":"0.00020410","GP_ID":"187537014","MEAN_MOTION_DOT":"0.00000815","MEAN_MOTION_DDOT":"0.0000000000000","OBJECT_NAME":"STARLINK-2549","OBJECT_TYPE":"PAYLOAD","MEAN_MOTION":"15.06393267","EPHEMERIS_TYPE":"0","REF_FRAME":"TEME","PERIOD":"95.593","SEMIMAJOR_AXIS":"6925.369","COUNTRY_CODE":"US","BSTAR":"0.00007363000000","EPOCH":"2021-10-18T16:06:19.768032","CENTER_NAME":"EARTH","LAUNCH_DATE":"2021-04-29","MEAN_ELEMENT_THEORY":"SGP4","PERIAPSIS":"545.821","RA_OF_ASC_NODE":"87.8599","REV_AT_EPOCH":"2655","OBJECT_ID":"2021-036AQ","RCS_SIZE":"LARGE","INCLINATION":"53.0564","DECAY_DATE":null,"APOAPSIS":"548.648","TLE_LINE2":"2 48314  53.0564  87.8599 0002041  74.1228 285.9986 15.06393267 26559","TLE_LINE1":"1 48314U 21036AQ  21291.67106213  .00000815  00000-0  73630-4 0  9990","CLASSIFICATION_TYPE":"U","NORAD_CAT_ID":"48314","TIME_SYSTEM":"UTC","ELEMENT_SET_NO":"999","ARG_OF_PERICENTER":"74.1228","MEAN_ANOMALY":"285.9986"},{"INCLINATION":"53.0556","DECAY_DATE":null,"RCS_SIZE":"LARGE","REV_AT_EPOCH":"2654","OBJECT_ID":"2021-036AR","TLE_LINE2":"2 48315  53.0556  88.1659 0001595  84.3133 275.8038 15.06404093 26548","TLE_LINE1":"1 48315U 21036AR  21291.60102343  .00001254  00000-0  10305-3 0  9991","APOAPSIS":"548.306","NORAD_CAT_ID":"48315","CLASSIFICATION_TYPE":"U","ARG_OF_PERICENTER":"84.3133","MEAN_ANOMALY":"275.8038","ELEMENT_SET_NO":"999","TIME_SYSTEM":"UTC","MEAN_MOTION_DDOT":"0.0000000000000","MEAN_MOTION_DOT":"0.00001254","GP_ID":"187537266","ECCENTRICITY":"0.00015950","FILE":"3170620","SITE":"AFETR","EPHEMERIS_TYPE":"0","REF_FRAME":"TEME","MEAN_MOTION":"15.06404093","OBJECT_TYPE":"PAYLOAD","OBJECT_NAME":"STARLINK-2506","COUNTRY_CODE":"US","BSTAR":"0.00010305000000","EPOCH":"2021-10-18T14:25:28.424352","SEMIMAJOR_AXIS":"6925.336","PERIOD":"95.592","PERIAPSIS":"546.096","RA_OF_ASC_NODE":"88.1659","MEAN_ELEMENT_THEORY":"SGP4","CENTER_NAME":"EARTH","LAUNCH_DATE":"2021-04-29"},{"CENTER_NAME":"EARTH","LAUNCH_DATE":"2021-04-29","MEAN_ELEMENT_THEORY":"SGP4","PERIAPSIS":"545.965","RA_OF_ASC_NODE":"87.8879","SEMIMAJOR_AXIS":"6925.351","PERIOD":"95.592","COUNTRY_CODE":"US","BSTAR":"0.00009512300000","EPOCH":"2021-10-18T15:55:43.480416","OBJECT_NAME":"STARLINK-2507","OBJECT_TYPE":"PAYLOAD","MEAN_MOTION":"15.06399060","EPHEMERIS_TYPE":"0","REF_FRAME":"TEME","SITE":"AFETR","FILE":"3170620","ECCENTRICITY":"0.00018070","GP_ID":"187537517","MEAN_MOTION_DOT":"0.00001135","MEAN_MOTION_DDOT":"0.0000000000000","TIME_SYSTEM":"UTC","ELEMENT_SET_NO":"999","MEAN_ANOMALY":"274.6403","ARG_OF_PERICENTER":"85.4792","CLASSIFICATION_TYPE":"U","NORAD_CAT_ID":"48316","APOAPSIS":"548.468","TLE_LINE2":"2 48316  53.0575  87.8879 0001807  85.4792 274.6403 15.06399060 26550","TLE_LINE1":"1 48316U 21036AS  21291.66369769  .00001135  00000-0  95123-4 0  9995","REV_AT_EPOCH":"2655","OBJECT_ID":"2021-036AS","RCS_SIZE":"LARGE","INCLINATION":"53.0575","DECAY_DATE":null}];
